CARTOSAT-2F             
1 43111U 18004A   20305.80110832  .00000650  00000-0  33976-4 0  9999
2 43111  97.3699   2.3423 0003322 318.6056 177.6531 15.19279516155410
PSLV DEB                
1 43112U 18004B   20305.83024165  .00005420  00000-0  20962-3 0  9996
2 43112  97.4415  17.4431 0008029 269.5118  90.5201 15.26613524155894
LEO VANTAGE 1           
1 43113U 18004C   20305.77725607 -.00000058  00000-0 -14468-4 0  9998
2 43113  99.3579 358.6868 0040581  42.4094 318.0181 13.77272238140842
ICEYE-X1                
1 43114U 18004D   20305.73645740  .00001567  00000-0  68318-4 0  9991
2 43114  97.4322  14.7141 0008303 285.7481  74.2840 15.23653370155741
CARBONITE 2             
1 43115U 18004E   20305.73990409  .00000716  00000-0  33688-4 0  9994
2 43115  97.4306  14.0150 0008526 290.0529  69.9790 15.22761192155719
INS-1C                  
1 43116U 18004F   20305.80010870  .00002152  00000-0  91252-4 0  9995
2 43116  97.4403  16.2513 0007809 290.0923  69.9474 15.24191535155805
CORVUS BC3              
1 43118U 18004H   20305.78281012  .00001218  00000-0  53846-4 0  9991
2 43118  97.4312  14.8586 0008805 298.2182  61.8165 15.23586079155756
FLOCK 3P'-3             
1 43119U 18004J   20305.84901924  .00001407  00000-0  61712-4 0  9991
2 43119  97.4388  15.4911 0008606 298.1572  61.8795 15.23618673155766
FLOCK 3P'-2             
1 43120U 18004K   20305.91438155  .00001159  00000-0  51695-4 0  9995
2 43120  97.4393  15.4311 0008551 298.0650  61.9721 15.23395681155764
FLOCK 3P'-1             
1 43121U 18004L   20305.85720707  .00003767  00000-0  15287-3 0  9999
2 43121  97.4396  16.3872 0008092 294.2993  65.7399 15.25202530155752
FLOCK 3P'-4             
1 43122U 18004M   20305.91292807  .00001255  00000-0  55709-4 0  9996
2 43122  97.4402  15.5015 0008432 300.7128  59.3278 15.23402650155761
LEMUR-2-MCCAFFERTY      
1 43123U 18004N   20305.84946250  .00002020  00000-0  81759-4 0  9992
2 43123  97.4377  17.3055 0007908 292.6683  67.3718 15.25848399155897
LEMUR-2-PETERWEBSTER    
1 43124U 18004P   20305.84896935  .00003397  00000-0  13587-3 0  9998
2 43124  97.4382  17.1788 0007902 291.7117  68.3280 15.25760051155883
LEMUR-2-BROWNCOW        
1 43125U 18004Q   20305.87307996  .00004094  00000-0  16059-3 0  9998
2 43125  97.4400  17.6336 0007601 291.7857  68.2572 15.26295613155911
LEMUR-2-DAVEWILSON      
1 43126U 18004R   20305.86813424  .00004062  00000-0  16000-3 0  9997
2 43126  97.4392  17.4926 0007657 291.5271  68.5151 15.26156582155900
DEMOSAT 2               
1 43127U 18004S   20305.87988871  .00001568  00000-0  67937-4 0  9992
2 43127  97.4326  15.4269 0008174 299.8116  60.2308 15.23864371155799
MICROSAT-TD             
1 43128U 18004T   20305.85478236  .00205598  18916-4  42138-3 0  9993
2 43128  96.5771 356.1936 0002618 307.5928  52.5114 15.99376636161033
ARKYD 6A                
1 43130U 18004V   20305.84187991  .00001852  00000-0  78933-4 0  9991
2 43130  97.4342  15.7629 0008152 299.6332  60.4093 15.24192591155802
MICROMAS-2A             
1 43131U 18004W   20305.75605328  .00002779  00000-0  11162-3 0  9990
2 43131  97.4374  17.0809 0007470 294.9077  65.1385 15.25783715155877
PICSAT                  
1 43132U 18004X   20305.76798085  .00002021  00000-0  84396-4 0  9995
2 43132  97.4355  16.2073 0007938 298.6440  61.3999 15.24779609155825
CNUSAIL-1               
1 43133U 18004Y   20305.92805555  .00001690  00000-0  72520-4 0  9992
2 43133  97.4335  15.7427 0008043 300.0378  60.0061 15.24081307155813
OBJECT Z                
1 43134U 18004Z   20305.76746137  .00001764  00000-0  74641-4 0  9993
2 43134  97.4347  16.0317 0007827 300.1432  59.9030 15.24515325155815
OBJECT AA               
1 43135U 18004AA  20305.76752703  .00002211  00000-0  91174-4 0  9998
2 43135  97.4361  16.5301 0007690 298.9682  61.0785 15.25115919155849
OBJECT AB               
1 43136U 18004AB  20305.84376478  .00003182  00000-0  12858-3 0  9998
2 43136  97.4376  16.9715 0007458 298.0261  62.0222 15.25466411155871
FOX-1D (AO-92)          
1 43137U 18004AC  20305.77006156  .00001578  00000-0  67288-4 0  9999
2 43137  97.4336  15.9328 0007646 302.1365  57.9130 15.24403194155811
STEP CUBE LAB           
1 43138U 18004AD  20305.83259920  .00003197  00000-0  12880-3 0  9992
2 43138  97.4372  17.1161 0007279 299.3348  60.7162 15.25570503155885
SPACEBEE-4              
1 43139U 18004AE  20305.92819522  .00005188  00000-0  19669-3 0  9997
2 43139  97.4418  18.7902 0006783 293.5506  66.5020 15.27305529155982
SPACEBEE-3              
1 43140U 18004AF  20305.85099635  .00006254  00000-0  22891-3 0  9992
2 43140  97.4440  19.6348 0006408 290.7063  69.3489 15.28386614156025
SPACEBEE-2              
1 43141U 18004AG  20305.86641303  .00006777  00000-0  24505-3 0  9993
2 43141  97.4454  20.0031 0006368 289.3064  70.7487 15.28757020156045
SPACEBEE-1              
1 43142U 18004AH  20305.86501209  .00007421  00000-0  26451-3 0  9993
2 43142  97.4460  20.3516 0006330 288.5432  71.5120 15.29190562156050
CICERO 7                
1 43143U 18004AJ  20305.88646994  .00003426  00000-0  13693-3 0  9992
2 43143  97.4350  17.3574 0005873 307.2503  52.8199 15.25787702155914
TYVAK-61C               
1 43144U 18004AK  20305.87573724  .00003695  00000-0  14500-3 0  9998
2 43144  97.4390  18.2226 0006396 312.1460  47.9235 15.26346019155954
